[{"OBJECT_NAME":"SHIYAN-1 (SY-1)","OBJECT_ID":"2004-012A","EPOCH":"2026-03-09T17:40:34.066560","MEAN_MOTION":15.31043463,"ECCENTRICITY":0.00058726,"INCLINATION":97.8764,"RA_OF_ASC_NODE":140.5238,"ARG_OF_PERICENTER":23.6952,"MEAN_ANOMALY":336.4557,"EPHEMERIS_TYPE":0,"CLASSIFICATION_TYPE":"U","NORAD_CAT_ID":28220,"ELEMENT_SET_NO":999,"REV_AT_EPOCH":19586,"BSTAR":0.00054854449,"MEAN_MOTION_DOT":0.00016393,"MEAN_MOTION_DDOT":0},{"OBJECT_NAME":"STARLINK-35893","OBJECT_ID":"2025-268J","EPOCH":"2026-03-09T04:14:12.463296","MEAN_MOTION":15.2758527,"ECCENTRICITY":0.00017748,"INCLINATION":43.0028,"RA_OF_ASC_NODE":349.7575,"ARG_OF_PERICENTER":257.0329,"MEAN_ANOMALY":103.0325,"EPHEMERIS_TYPE":0,"CLASSIFICATION_TYPE":"U","NORAD_CAT_ID":66565,"ELEMENT_SET_NO":999,"REV_AT_EPOCH":1788,"BSTAR":0.0010110269,"MEAN_MOTION_DOT":0.00027668,"MEAN_MOTION_DDOT":0}]
